[{"OBJECT_NAME":"FLOCK 4G-13","OBJECT_ID":"2025-009N","EPOCH":"2026-03-09T16:57:12.071808","MEAN_MOTION":15.32770015,"ECCENTRICITY":0.0003801,"INCLINATION":97.4019,"RA_OF_ASC_NODE":151.0918,"ARG_OF_PERICENTER":292.7207,"MEAN_ANOMALY":67.3633,"EPHEMERIS_TYPE":0,"CLASSIFICATION_TYPE":"U","NORAD_CAT_ID":62621,"ELEMENT_SET_NO":999,"REV_AT_EPOCH":6370,"BSTAR":0.0016695386,"MEAN_MOTION_DOT":0.00053076,"MEAN_MOTION_DDOT":0},{"OBJECT_NAME":"STARLINK-33964","OBJECT_ID":"2025-110Y","EPOCH":"2026-03-09T07:04:51.531168","MEAN_MOTION":15.30188737,"ECCENTRICITY":0.0001047,"INCLINATION":53.1608,"RA_OF_ASC_NODE":28.4792,"ARG_OF_PERICENTER":79.4567,"MEAN_ANOMALY":280.6551,"EPHEMERIS_TYPE":0,"CLASSIFICATION_TYPE":"U","NORAD_CAT_ID":64118,"ELEMENT_SET_NO":999,"REV_AT_EPOCH":4582,"BSTAR":0.0010225595,"MEAN_MOTION_DOT":0.00030038,"MEAN_MOTION_DDOT":0}]
